{"type": "FeatureCollection", "features": [ {"type": "Feature", "properties": {"norad_id": 33841, "name": "COSMOS 2251 DEB", "group": "cosmos-2251-debris", "lat": -71.01074503841421, "lon": -165.60310886171047, "alt_km": 762.3311714008823, "timestamp": "2025-12-27T14:26:30.914202+00:00", "meta": {"OBJECT_NAME": "COSMOS 2251 DEB", "OBJECT_ID": "1993-036CJ", "EPOCH": "2025-12-27T03:49:39.204192", "MEAN_MOTION": 14.37880701, "ECCENTRICITY": 0.00210905, "INCLINATION": 74.037, "RA_OF_ASC_NODE": 251.4934, "ARG_OF_PERICENTER": 329.2775, "MEAN_ANOMALY": 182.9242, "EPHEMERIS_TYPE": 0, "CLASSIFICATION_TYPE": "U", "NORAD_CAT_ID": 33841, "ELEMENT_SET_NO": 999, "REV_AT_EPOCH": 88321, "BSTAR": 0.00023080293, "MEAN_MOTION_DOT": 6.72e-06, "MEAN_MOTION_DDOT": 0}, "tle": {"line1": "1 33841U 93036CJ  25361.15948153  .00000672  00000+0  23080-3 0  9993", "line2": "2 33841  74.0370 251.4934 0021090 329.2775 182.9242 14.37880701883216"}}, "geometry": {"type": "Point", "coordinates": [-165.60310886171047, -71.01074503841421]}}, {"type": "Feature", "properties": {"norad_id": 33842, "name": "COSMOS 2251 DEB", "group": "cosmos-2251-debris", "lat": 67.82705247507937, "lon": -123.29880798806731, "alt_km": 767.7140436909995, "timestamp": "2025-12-27T14:26:30.914212+00:00", "meta": {"OBJECT_NAME": "COSMOS 2251 DEB", "OBJECT_ID": "1993-036CK", "EPOCH": "2025-12-26T23:07:12.101664", "MEAN_MOTION": 14.42724489, "ECCENTRICITY": 0.0047623, "INCLINATION": 74.0314, "RA_OF_ASC_NODE": 193.25, "ARG_OF_PERICENTER": 297.7777, "MEAN_ANOMALY": 61.8554, "EPHEMERIS_TYPE": 0, "CLASSIFICATION_TYPE": "U", "NORAD_CAT_ID": 33842, "ELEMENT_SET_NO": 999, "REV_AT_EPOCH": 88542, "BSTAR": 0.0003135, "MEAN_MOTION_DOT": 1.031e-05, "MEAN_MOTION_DDOT": 0}, "tle": {"line1": "1 33842U 93036CK  25360.96333451  .00001031  00000+0  31350-3 0  9990", "line2": "2 33842  74.0314 193.2500 0047623 297.7777  61.8554 14.42724489885420"}}, "geometry": {"type": "Point", "coordinates": [-123.29880798806731, 67.82705247507937]}}, {"type": "Feature", "properties": {"norad_id": 33844, "name": "COSMOS 2251 DEB", "group": "cosmos-2251-debris", "lat": -60.11451904712492, "lon": -124.54657162137387, "alt_km": 817.5029190794276, "timestamp": "2025-12-27T14:26:30.914223+00:00", "meta": {"OBJECT_NAME": "COSMOS 2251 DEB", "OBJECT_ID": "1993-036CM", "EPOCH": "2025-12-27T03:31:17.946336", "MEAN_MOTION": 14.33745479, "ECCENTRICITY": 0.00472704, "INCLINATION": 74.0663, "RA_OF_ASC_NODE": 26.4755, "ARG_OF_PERICENTER": 43.8466, "MEAN_ANOMALY": 13.0922, "EPHEMERIS_TYPE": 0, "CLASSIFICATION_TYPE": "U", "NORAD_CAT_ID": 33844, "ELEMENT_SET_NO": 999, "REV_AT_EPOCH": 87932, "BSTAR": 0.00041048636, "MEAN_MOTION_DOT": 1.129e-05, "MEAN_MOTION_DDOT": 0}, "tle": {"line1": "1 33844U 93036CM  25361.14673549  .00001129  00000+0  41049-3 0  9992", "line2": "2 33844  74.0663  26.4755 0047270  43.8466  13.0922 14.33745479879323"}}, "geometry": {"type": "Point", "coordinates": [-124.54657162137387, -60.11451904712492]}}, {"type": "Feature", "properties": {"norad_id": 33848, "name": "COSMOS 2251 DEB", "group": "cosmos-2251-debris", "lat": -70.32846840177221, "lon": -156.7941220269383, "alt_km": 768.0497976711704, "timestamp": "2025-12-27T14:26:30.914233+00:00", "meta": {"OBJECT_NAME": "COSMOS 2251 DEB", "OBJECT_ID": "1993-036CR", "EPOCH": "2025-12-27T05:00:42.377184", "MEAN_MOTION": 14.44167594, "ECCENTRICITY": 0.00420548, "INCLINATION": 74.0324, "RA_OF_ASC_NODE": 330.7192, "ARG_OF_PERICENTER": 22.4953, "MEAN_ANOMALY": 354.2714, "EPHEMERIS_TYPE": 0, "CLASSIFICATION_TYPE": "U", "NORAD_CAT_ID": 33848, "ELEMENT_SET_NO": 999, "REV_AT_EPOCH": 88040, "BSTAR": 0.0014055627, "MEAN_MOTION_DOT": 4.849e-05, "MEAN_MOTION_DDOT": 0}, "tle": {"line1": "1 33848U 93036CR  25361.20882381  .00004849  00000+0  14056-2 0  9998", "line2": "2 33848  74.0324 330.7192 0042054  22.4953 354.2714 14.44167594880404"}}, "geometry": {"type": "Point", "coordinates": [-156.7941220269383, -70.32846840177221]}}, {"type": "Feature", "properties": {"norad_id": 33892, "name": "COSMOS 2251 DEB", "group": "cosmos-2251-debris", "lat": 23.372528643965882, "lon": -112.27142000993804, "alt_km": 763.2188576559538, "timestamp": "2025-12-27T14:26:30.914244+00:00", "meta": {"OBJECT_NAME": "COSMOS 2251 DEB", "OBJECT_ID": "1993-036CV", "EPOCH": "2025-12-27T07:15:50.025312", "MEAN_MOTION": 14.23385068, "ECCENTRICITY": 0.0111951, "INCLINATION": 73.8025, "RA_OF_ASC_NODE": 75.4904, "ARG_OF_PERICENTER": 103.8272, "MEAN_ANOMALY": 318.6959, "EPHEMERIS_TYPE": 0, "CLASSIFICATION_TYPE": "U", "NORAD_CAT_ID": 33892, "ELEMENT_SET_NO": 999, "REV_AT_EPOCH": 87162, "BSTAR": 0.00063908945, "MEAN_MOTION_DOT": 1.521e-05, "MEAN_MOTION_DDOT": 0}, "tle": {"line1": "1 33892U 93036CV  25361.30266233  .00001521  00000+0  63909-3 0  9996", "line2": "2 33892  73.8025  75.4904 0111951 103.8272 318.6959 14.23385068871627"}}, "geometry": {"type": "Point", "coordinates": [-112.27142000993804, 23.372528643965882]}}, {"type": "Feature", "properties": {"norad_id": 33894, "name": "COSMOS 2251 DEB", "group": "cosmos-2251-debris", "lat": 15.009203249968074, "lon": -29.438314252390352, "alt_km": 1459.4285327841426, "timestamp": "2025-12-27T14:26:30.914254+00:00", "meta": {"OBJECT_NAME": "COSMOS 2251 DEB", "OBJECT_ID": "1993-036CX", "EPOCH": "2025-12-26T07:28:06.751200", "MEAN_MOTION": 13.21329669, "ECCENTRICITY": 0.0578513, "INCLINATION": 73.7663, "RA_OF_ASC_NODE": 328.0775, "ARG_OF_PERICENTER": 245.6983, "MEAN_ANOMALY": 108.2665, "EPHEMERIS_TYPE": 0, "CLASSIFICATION_TYPE": "U", "NORAD_CAT_ID": 33894, "ELEMENT_SET_NO": 999, "REV_AT_EPOCH": 80887, "BSTAR": 0.00063858, "MEAN_MOTION_DOT": 6.11e-06, "MEAN_MOTION_DDOT": 0}, "tle": {"line1": "1 33894U 93036CX  25360.31118925  .00000611  00000+0  63858-3 0  9994", "line2": "2 33894  73.7663 328.0775 0578513 245.6983 108.2665 13.21329669808870"}}, "geometry": {"type": "Point", "coordinates": [-29.438314252390352, 15.009203249968074]}}, {"type": "Feature", "properties": {"norad_id": 33896, "name": "COSMOS 2251 DEB", "group": "cosmos-2251-debris", "lat": -5.333495593865245, "lon": 128.1427531396043, "alt_km": 773.9533740916613, "timestamp": "2025-12-27T14:26:30.914263+00:00", "meta": {"OBJECT_NAME": "COSMOS 2251 DEB", "OBJECT_ID": "1993-036CZ", "EPOCH": "2025-12-27T03:28:23.477088", "MEAN_MOTION": 14.19075036, "ECCENTRICITY": 0.01273064, "INCLINATION": 73.7667, "RA_OF_ASC_NODE": 130.5308, "ARG_OF_PERICENTER": 303.9149, "MEAN_ANOMALY": 235.5951, "EPHEMERIS_TYPE": 0, "CLASSIFICATION_TYPE": "U", "NORAD_CAT_ID": 33896, "ELEMENT_SET_NO": 999, "REV_AT_EPOCH": 86944, "BSTAR": 0.00077786693, "MEAN_MOTION_DOT": 1.735e-05, "MEAN_MOTION_DDOT": 0}, "tle": {"line1": "1 33896U 93036CZ  25361.14471617  .00001735  00000+0  77787-3 0  9992", "line2": "2 33896  73.7667 130.5308 0127306 303.9149 235.5951 14.19075036869442"}}, "geometry": {"type": "Point", "coordinates": [128.1427531396043, -5.333495593865245]}}, {"type": "Feature", "properties": {"norad_id": 33899, "name": "COSMOS 2251 DEB", "group": "cosmos-2251-debris", "lat": 66.21483783458694, "lon": -163.10878723298546, "alt_km": 643.0037890321, "timestamp": "2025-12-27T14:26:30.914273+00:00", "meta": {"OBJECT_NAME": "COSMOS 2251 DEB", "OBJECT_ID": "1993-036DC", "EPOCH": "2025-12-27T04:14:10.163328", "MEAN_MOTION": 14.61309845, "ECCENTRICITY": 0.00558562, "INCLINATION": 74.0533, "RA_OF_ASC_NODE": 58.1499, "ARG_OF_PERICENTER": 116.4994, "MEAN_ANOMALY": 275.2794, "EPHEMERIS_TYPE": 0, "CLASSIFICATION_TYPE": "U", "NORAD_CAT_ID": 33899, "ELEMENT_SET_NO": 999, "REV_AT_EPOCH": 89050, "BSTAR": 0.00089429364, "MEAN_MOTION_DOT": 4.488e-05, "MEAN_MOTION_DDOT": 0}, "tle": {"line1": "1 33899U 93036DC  25361.17650652  .00004488  00000+0  89429-3 0  9990", "line2": "2 33899  74.0533  58.1499 0055856 116.4994 275.2794 14.61309845890504"}}, "geometry": {"type": "Point", "coordinates": [-163.10878723298546, 66.21483783458694]}}, {"type": "Feature", "properties": {"norad_id": 33900, "name": "COSMOS 2251 DEB", "group": "cosmos-2251-debris", "lat": -10.585968049848917, "lon": -31.524688404254274, "alt_km": 723.2807328361077, "timestamp": "2025-12-27T14:26:30.914284+00:00", "meta": {"OBJECT_NAME": "COSMOS 2251 DEB", "OBJECT_ID": "1993-036DD", "EPOCH": "2025-12-27T04:41:36.604320", "MEAN_MOTION": 14.58400366, "ECCENTRICITY": 0.00462814, "INCLINATION": 74.0196, "RA_OF_ASC_NODE": 332.3189, "ARG_OF_PERICENTER": 120.1334, "MEAN_ANOMALY": 257.6802, "EPHEMERIS_TYPE": 0, "CLASSIFICATION_TYPE": "U", "NORAD_CAT_ID": 33900, "ELEMENT_SET_NO": 999, "REV_AT_EPOCH": 89247, "BSTAR": 0.0005170301, "MEAN_MOTION_DOT": 2.402e-05, "MEAN_MOTION_DDOT": 0}, "tle": {"line1": "1 33900U 93036DD  25361.19556255  .00002402  00000+0  51703-3 0  9997", "line2": "2 33900  74.0196 332.3189 0046281 120.1334 257.6802 14.58400366892475"}}, "geometry": {"type": "Point", "coordinates": [-31.524688404254274, -10.585968049848917]}}, {"type": "Feature", "properties": {"norad_id": 33901, "name": "COSMOS 2251 DEB", "group": "cosmos-2251-debris", "lat": -27.915806998145424, "lon": -153.32327431697883, "alt_km": 509.378524749578, "timestamp": "2025-12-27T14:26:30.914294+00:00", "meta": {"OBJECT_NAME": "COSMOS 2251 DEB", "OBJECT_ID": "1993-036DE", "EPOCH": "2025-12-27T07:11:48.316992", "MEAN_MOTION": 15.17472477, "ECCENTRICITY": 0.00296918, "INCLINATION": 73.7741, "RA_OF_ASC_NODE": 18.4409, "ARG_OF_PERICENTER": 147.277, "MEAN_ANOMALY": 213.0272, "EPHEMERIS_TYPE": 0, "CLASSIFICATION_TYPE": "U", "NORAD_CAT_ID": 33901, "ELEMENT_SET_NO": 999, "REV_AT_EPOCH": 89734, "BSTAR": 0.0027633675, "MEAN_MOTION_DOT": 0.00056387, "MEAN_MOTION_DDOT": 0}, "tle": {"line1": "1 33901U 93036DE  25361.29986478  .00056387  00000+0  27634-2 0  9999", "line2": "2 33901  73.7741  18.4409 0029691 147.2770 213.0272 15.17472477897341"}}, "geometry": {"type": "Point", "coordinates": [-153.32327431697883, -27.915806998145424]}}]}